[
    {
        "Altitude(m)": 604969.089171358,
        "Argument of Periapsis(deg)": 0.0,
        "Eccentricity": 0.0,
        "Inclination(deg)": 60.0,
        "Latitude(deg)": -0.0926899392716102,
        "Longitude(deg)": -145.02247252668292,
        "Mean Anomaly(deg)": 0.0,
        "RAAN(deg)": 315.0,
        "Satellite Name": "Test1 1386",
        "Satellite Number": 1386,
        "Semi-Major Axis(m)": 6980739.136638005,
        "Time(s)": 0
    },
    {
        "Altitude(m)": 604900.0284613678,
        "Argument of Periapsis(deg)": 0.00010418945913296404,
        "Eccentricity": 0.0,
        "Inclination(deg)": 60.0,
        "Latitude(deg)": 0.4477355708046634,
        "Longitude(deg)": -144.75434873091277,
        "Mean Anomaly(deg)": 0.620106145461853,
        "RAAN(deg)": 314.99957995086027,
        "Satellite Name": "Test1 1386",
        "Satellite Number": 1386,
        "Semi-Major Axis(m)": 6980739.136638005,
        "Time(s)": 10
    },
    {
        "Altitude(m)": 604834.1958138859,
        "Argument of Periapsis(deg)": 0.0002083789182659281,
        "Eccentricity": 0.0,
        "Inclination(deg)": 60.0,
        "Latitude(deg)": 0.9881578556023719,
        "Longitude(deg)": -144.48617352658138,
        "Mean Anomaly(deg)": 1.240212290923655,
        "RAAN(deg)": 314.9991599017205,
        "Satellite Name": "Test1 1386",
        "Satellite Number": 1386,
        "Semi-Major Axis(m)": 6980739.136638005,
        "Time(s)": 20
    },
    {
        "Altitude(m)": 604771.5976080158,
        "Argument of Periapsis(deg)": 0.00031256837739889213,
        "Eccentricity": 0.0,
        "Inclination(deg)": 60.0,
        "Latitude(deg)": 1.5285598290308005,
        "Longitude(deg)": -144.21789252426308,
        "Mean Anomaly(deg)": 1.8603184363855083,
        "RAAN(deg)": 314.9987398525808,
        "Satellite Name": "Test1 1386",
        "Satellite Number": 1386,
        "Semi-Major Axis(m)": 6980739.136638005,
        "Time(s)": 30
    },
    {
        "Altitude(m)": 604712.2386929715,
        "Argument of Periapsis(deg)": 0.0004167578365318562,
        "Eccentricity": 0.0,
        "Inclination(deg)": 60.0,
        "Latitude(deg)": 2.068924383536908,
        "Longitude(deg)": -143.9494507659932,
        "Mean Anomaly(deg)": 2.48042458184731,
        "RAAN(deg)": 314.99831980344106,
        "Satellite Name": "Test1 1386",
        "Satellite Number": 1386,
        "Semi-Major Axis(m)": 6980739.136638005,
        "Time(s)": 40
    },
    {
        "Altitude(m)": 604656.1223885147,
        "Argument of Periapsis(deg)": 0.0005209472956648203,
        "Eccentricity": 0.0,
        "Inclination(deg)": 60.0,
        "Latitude(deg)": 2.6092343801961464,
        "Longitude(deg)": -143.68079370183267,
        "Mean Anomaly(deg)": 3.1005307273091636,
        "RAAN(deg)": 314.9978997543013,
        "Satellite Name": "Test1 1386",
        "Satellite Number": 1386,
        "Semi-Major Axis(m)": 6980739.136638005,
        "Time(s)": 50
    },
    {
        "Altitude(m)": 604603.2504861546,
        "Argument of Periapsis(deg)": 0.0006251367547977843,
        "Eccentricity": 0.0,
        "Inclination(deg)": 60.0,
        "Latitude(deg)": 3.14947263876031,
        "Longitude(deg)": -143.41186665347132,
        "Mean Anomaly(deg)": 3.7206368727709656,
        "RAAN(deg)": 314.99747970516154,
        "Satellite Name": "Test1 1386",
        "Satellite Number": 1386,
        "Semi-Major Axis(m)": 6980739.136638005,
        "Time(s)": 60
    },
    {
        "Altitude(m)": 604553.6232511003,
        "Argument of Periapsis(deg)": 0.0007293262139307483,
        "Eccentricity": 0.0,
        "Inclination(deg)": 60.0,
        "Latitude(deg)": 3.689621927652863,
        "Longitude(deg)": -143.1426142777122,
        "Mean Anomaly(deg)": 4.340743018232819,
        "RAAN(deg)": 314.9970596560218,
        "Satellite Name": "Test1 1386",
        "Satellite Number": 1386,
        "Semi-Major Axis(m)": 6980739.136638005,
        "Time(s)": 70
    },
    {
        "Altitude(m)": 604507.2394249749,
        "Argument of Periapsis(deg)": 0.0008335156730637124,
        "Eccentricity": 0.0,
        "Inclination(deg)": 60.0,
        "Latitude(deg)": 4.229664953899281,
        "Longitude(deg)": -142.87298154268328,
        "Mean Anomaly(deg)": 4.96084916369462,
        "RAAN(deg)": 314.99663960688207,
        "Satellite Name": "Test1 1386",
        "Satellite Number": 1386,
        "Semi-Major Axis(m)": 6980739.136638005,
        "Time(s)": 80
    },
    {
        "Altitude(m)": 604464.0962292441,
        "Argument of Periapsis(deg)": 0.0009377051321966765,
        "Eccentricity": 0.0,
        "Inclination(deg)": 60.0,
        "Latitude(deg)": 4.769584352975312,
        "Longitude(deg)": -142.60291319099903,
        "Mean Anomaly(deg)": 5.580955309156474,
        "RAAN(deg)": 314.99621955774234,
        "Satellite Name": "Test1 1386",
        "Satellite Number": 1386,
        "Semi-Major Axis(m)": 6980739.136638005,
        "Time(s)": 90
    },
    {
        "Altitude(m)": 604424.1893694437,
        "Argument of Periapsis(deg)": 0.0010418945913296407,
        "Eccentricity": 0.0,
        "Inclination(deg)": 60.0,
        "Latitude(deg)": 5.3093626785605075,
        "Longitude(deg)": -142.3323532027176,
        "Mean Anomaly(deg)": 6.201061454618327,
        "RAAN(deg)": 314.99579950860254,
        "Satellite Name": "Test1 1386",
        "Satellite Number": 1386,
        "Semi-Major Axis(m)": 6980739.136638005,
        "Time(s)": 100
    },
    {
        "Altitude(m)": 604387.5130401085,
        "Argument of Periapsis(deg)": 0.0011460840504626045,
        "Eccentricity": 0.0,
        "Inclination(deg)": 60.0,
        "Latitude(deg)": 5.848982392186644,
        "Longitude(deg)": -142.06124577093757,
        "Mean Anomaly(deg)": 6.821167600080129,
        "RAAN(deg)": 314.99537945946287,
        "Satellite Name": "Test1 1386",
        "Satellite Number": 1386,
        "Semi-Major Axis(m)": 6980739.136638005,
        "Time(s)": 110
    },
    {
        "Altitude(m)": 604354.0599304546,
        "Argument of Periapsis(deg)": 0.0012502735095955685,
        "Eccentricity": 0.0,
        "Inclination(deg)": 60.0,
        "Latitude(deg)": 6.3884258527617295,
        "Longitude(deg)": -141.7895347642579,
        "Mean Anomaly(deg)": 7.441273745541982,
        "RAAN(deg)": 314.99495941032313,
        "Satellite Name": "Test1 1386",
        "Satellite Number": 1386,
        "Semi-Major Axis(m)": 6980739.136638005,
        "Time(s)": 120
    },
    {
        "Altitude(m)": 604323.8212308378,
        "Argument of Periapsis(deg)": 0.0013544629687285324,
        "Eccentricity": 0.0,
        "Inclination(deg)": 60.0,
        "Latitude(deg)": 6.927675305957253,
        "Longitude(deg)": -141.51716318894543,
        "Mean Anomaly(deg)": 8.061379891003783,
        "RAAN(deg)": 314.99453936118334,
        "Satellite Name": "Test1 1386",
        "Satellite Number": 1386,
        "Semi-Major Axis(m)": 6980739.136638005,
        "Time(s)": 130
    },
    {
        "Altitude(m)": 604296.7866398741,
        "Argument of Periapsis(deg)": 0.0014586524278614966,
        "Eccentricity": 0.0,
        "Inclination(deg)": 60.0,
        "Latitude(deg)": 7.466712873447834,
        "Longitude(deg)": -141.24407416365423,
        "Mean Anomaly(deg)": 8.681486036465637,
        "RAAN(deg)": 314.9941193120436,
        "Satellite Name": "Test1 1386",
        "Satellite Number": 1386,
        "Semi-Major Axis(m)": 6980739.136638005,
        "Time(s)": 140
    },
    {
        "Altitude(m)": 604272.944372347,
        "Argument of Periapsis(deg)": 0.0015628418869944607,
        "Eccentricity": 0.0,
        "Inclination(deg)": 60.0,
        "Latitude(deg)": 8.00552054198226,
        "Longitude(deg)": -140.97021038092038,
        "Mean Anomaly(deg)": 9.30159218192744,
        "RAAN(deg)": 314.9936992629039,
        "Satellite Name": "Test1 1386",
        "Satellite Number": 1386,
        "Semi-Major Axis(m)": 6980739.136638005,
        "Time(s)": 150
    },
    {
        "Altitude(m)": 604252.2811678466,
        "Argument of Periapsis(deg)": 0.0016670313461274247,
        "Eccentricity": 0.0,
        "Inclination(deg)": 60.0,
        "Latitude(deg)": 8.544080152274868,
        "Longitude(deg)": -140.69551356827625,
        "Mean Anomaly(deg)": 9.921698327389292,
        "RAAN(deg)": 314.99327921376414,
        "Satellite Name": "Test1 1386",
        "Satellite Number": 1386,
        "Semi-Major Axis(m)": 6980739.136638005,
        "Time(s)": 160
    },
    {
        "Altitude(m)": 604234.782300078,
        "Argument of Periapsis(deg)": 0.0017712208052603888,
        "Eccentricity": 0.0,
        "Inclination(deg)": 60.0,
        "Latitude(deg)": 9.08237338770304,
        "Longitude(deg)": -140.41992546182772,
        "Mean Anomaly(deg)": 10.541804472851146,
        "RAAN(deg)": 314.9928591646244,
        "Satellite Name": "Test1 1386",
        "Satellite Number": 1386,
        "Semi-Major Axis(m)": 6980739.136638005,
        "Time(s)": 170
    },
    {
        "Altitude(m)": 604220.4315869351,
        "Argument of Periapsis(deg)": 0.001875410264393353,
        "Eccentricity": 0.0,
        "Inclination(deg)": 60.0,
        "Latitude(deg)": 9.6203817627915,
        "Longitude(deg)": -140.1433872665181,
        "Mean Anomaly(deg)": 11.161910618312948,
        "RAAN(deg)": 314.9924391154846,
        "Satellite Name": "Test1 1386",
        "Satellite Number": 1386,
        "Semi-Major Axis(m)": 6980739.136638005,
        "Time(s)": 180
    },
    {
        "Altitude(m)": 604209.211401254,
        "Argument of Periapsis(deg)": 0.0019795997235263173,
        "Eccentricity": 0.0,
        "Inclination(deg)": 60.0,
        "Latitude(deg)": 10.158086611469656,
        "Longitude(deg)": -139.86583911592297,
        "Mean Anomaly(deg)": 11.782016763774802,
        "RAAN(deg)": 314.99201906634494,
        "Satellite Name": "Test1 1386",
        "Satellite Number": 1386,
        "Semi-Major Axis(m)": 6980739.136638005,
        "Time(s)": 190
    }
]